NORAD_CAT_ID,OBJECT_NAME,OBJECT_TYPE,EPOCH,MEAN_MOTION,ECCENTRICITY,INCLINATION,RA_OF_ASC_NODE,ARG_OF_PERICENTER,MEAN_ANOMALY,BSTAR,MEAN_MOTION_DOT,MEAN_MOTION_DDOT,TLE_LINE0,TLE_LINE1,TLE_LINE2,SEMIMAJOR_AXIS,PERIOD,APOGEE,PERIGEE,DECAYED
52644.0,STARLINK-3985,PAYLOAD,2023-05-06 13:18:10,15.08835717,0.000129,53.2164,239.49,87.6535,272.4605,0.00016013,2.261e-05,0.0,0 STARLINK-3985,1 52644U 22052AY  23126.55428797  .00002261  00000-0  16013-3 0  9998,2 52644  53.2164 239.4900 0001290  87.6535 272.4605 15.08835717 54401,6917.893,95.438,540.651,538.866,0.0
52644.0,STARLINK-3985,PAYLOAD,2023-05-06 16:28:56,15.08845394,0.0001281,53.2166,238.8944,86.2957,273.8181,0.00031189,4.68e-05,0.0,0 STARLINK-3985,1 52644U 22052AY  23126.68676594  .00004680  00000-0  31189-3 0  9990,2 52644  53.2166 238.8944 0001281  86.2957 273.8181 15.08845394 54807,6917.864,95.437,540.615,538.843,0.0
52644.0,STARLINK-3985,PAYLOAD,2023-05-07 13:08:57,15.08852418,0.000106,53.2158,235.0271,81.8195,278.2917,0.00052637,8.102e-05,0.0,0 STARLINK-3985,1 52644U 22052AY  23127.54788313  .00008102  00000-0  52637-3 0  9993,2 52644  53.2158 235.0271 0001060  81.8195 278.2917 15.08852418 54553,6917.842,95.437,540.441,538.974,0.0
52644.0,STARLINK-3985,PAYLOAD,2023-05-07 14:44:20,15.0885549,0.0001087,53.2156,234.73,81.6779,278.4336,0.0006174,9.556e-05,0.0,0 STARLINK-3985,1 52644U 22052AY  23127.61412218  .00009556  00000-0  61740-3 0  9998,2 52644  53.2156 234.7300 0001087  81.6779 278.4336 15.08855490 54566,6917.833,95.437,540.45,538.946,0.0
52644.0,STARLINK-3985,PAYLOAD,2023-05-08 00:16:39,15.08848786,0.0001094,53.2147,232.949,78.5347,281.5768,0.00028751,4.292e-05,0.0,0 STARLINK-3985,1 52644U 22052AY  23128.01156287  .00004292  00000-0  28751-3 0  9991,2 52644  53.2147 232.9490 0001094  78.5347 281.5768 15.08848786 55004,6917.854,95.437,540.475,538.962,0.0
52644.0,STARLINK-3985,PAYLOAD,2023-05-08 11:24:21,15.08836558,0.0001444,53.2146,230.8662,87.1929,272.9229,-1.2531e-05,-4.87e-06,0.0,0 STARLINK-3985,1 52644U 22052AY  23128.47524736 -.00000487  00000-0 -12531-4 0  9993,2 52644  53.2146 230.8662 0001444  87.1929 272.9229 15.08836558 55079,6917.891,95.438,540.755,538.757,0.0
52644.0,STARLINK-3985,PAYLOAD,2023-05-08 16:10:30,15.08845399,0.0001227,53.2154,229.9725,88.6807,271.4326,0.0003173,4.766e-05,0.0,0 STARLINK-3985,1 52644U 22052AY  23128.67396519  .00004766  00000-0  31730-3 0  9994,2 52644  53.2154 229.9725 0001227  88.6807 271.4326 15.08845399 54723,6917.864,95.437,540.578,538.88,0.0
52644.0,STARLINK-3985,PAYLOAD,2023-05-09 12:50:31,15.0884177,0.0001434,53.2155,226.1095,87.3621,272.7535,0.00038183,5.794e-05,0.0,0 STARLINK-3985,1 52644U 22052AY  23129.53509030  .00005794  00000-0  38183-3 0  9995,2 52644  53.2155 226.1095 0001434  87.3621 272.7535 15.08841770 54852,6917.875,95.437,540.732,538.748,0.0
52644.0,STARLINK-3985,PAYLOAD,2023-05-10 12:41:19,15.08818986,0.0001265,53.2154,221.6459,106.2218,253.8914,0.0002164,3.156e-05,0.0,0 STARLINK-3985,1 52644U 22052AY  23130.52870151  .00003156  00000-0  21640-3 0  9991,2 52644  53.2154 221.6459 0001265 106.2218 253.8914 15.08818986 55002,6917.945,95.439,540.685,538.935,0.0
52644.0,STARLINK-3985,PAYLOAD,2023-05-10 17:27:29,15.08829806,0.0001302,53.2155,220.7528,115.2008,244.9119,0.00039698,6.034e-05,0.0,0 STARLINK-3985,1 52644U 22052AY  23130.72742169  .00006034  00000-0  39698-3 0  9990,2 52644  53.2155 220.7528 0001302 115.2008 244.9119 15.08829806 55033,6917.912,95.438,540.677,538.876,0.0
52644.0,STARLINK-3985,PAYLOAD,2023-05-11 10:56:43,15.08869325,0.0001235,53.215,217.4821,117.3787,242.7331,0.0015201,0.00024007,0.0,0 STARLINK-3985,1 52644U 22052AY  23131.45605612  .00024007  00000-0  15201-2 0  9995,2 52644  53.2150 217.4821 0001235 117.3787 242.7331 15.08869325 55525,6917.791,95.436,540.51,538.801,0.0
52644.0,STARLINK-3985,PAYLOAD,2023-05-12 09:12:06,15.08869462,0.0001138,53.2154,213.3197,99.3571,260.755,0.0017047,0.00026968,0.0,0 STARLINK-3985,1 52644U 22052AY  23132.38341194  .00026968  00000-0  17047-2 0  9998,2 52644  53.2154 213.3197 0001138  99.3571 260.7550 15.08869462 55280,6917.79,95.436,540.443,538.868,0.0
52644.0,STARLINK-3985,PAYLOAD,2023-05-13 12:13:39,15.08853794,9.97e-05,53.2161,208.2679,67.3044,292.8053,0.00055671,8.587e-05,0.0,0 STARLINK-3985,1 52644U 22052AY  23133.50948864  .00008587  00000-0  55671-3 0  9993,2 52644  53.2161 208.2679 0000997  67.3044 292.8053 15.08853794 55834,6917.838,95.437,540.393,539.014,0.0
52644.0,STARLINK-3985,PAYLOAD,2023-05-13 21:45:58,15.08836472,0.0001132,53.2162,206.4831,107.4202,252.6914,0.00015138,2.122e-05,0.0,0 STARLINK-3985,1 52644U 22052AY  23133.90692791  .00002122  00000-0  15138-3 0  9995,2 52644  53.2162 206.4831 0001132 107.4202 252.6914 15.08836472 55899,6917.891,95.438,540.539,538.973,0.0
52644.0,STARLINK-3985,PAYLOAD,2023-05-14 12:04:27,15.08834623,0.0001161,53.2162,203.8109,102.5867,257.5255,-6.4061e-05,-1.307e-05,0.0,0 STARLINK-3985,1 52644U 22052AY  23134.50309375 -.00001307  00000-0 -64061-4 0  9991,2 52644  53.2162 203.8109 0001161 102.5867 257.5255 15.08834623 55600,6917.897,95.438,540.565,538.959,0.0
52644.0,STARLINK-3985,PAYLOAD,2023-05-15 11:55:15,15.08825209,0.0001322,53.2163,199.347,91.6519,268.4625,0.00066922,0.00010374,0.0,0 STARLINK-3985,1 52644U 22052AY  23135.49670451  .00010374  00000-0  66922-3 0  9995,2 52644  53.2163 199.3470 0001322  91.6519 268.4625 15.08825209 55750,6917.926,95.438,540.705,538.876,0.0
52644.0,STARLINK-3985,PAYLOAD,2023-05-15 23:02:56,15.08839312,0.0001256,53.216,197.2656,83.1787,276.9348,0.000148,2.068e-05,0.0,0 STARLINK-3985,1 52644U 22052AY  23135.96037786  .00002068  00000-0  14800-3 0  9994,2 52644  53.2160 197.2656 0001256  83.1787 276.9348 15.08839312 56206,6917.882,95.438,540.616,538.879,0.0
52644.0,STARLINK-3985,PAYLOAD,2023-05-16 13:21:25,15.08838825,0.000116,53.2154,194.588,84.9079,275.2046,0.00011458,1.536e-05,0.0,0 STARLINK-3985,1 52644U 22052AY  23136.55653980  .00001536  00000-0  11458-3 0  9995,2 52644  53.2154 194.5880 0001160  84.9079 275.2046 15.08838825 55917,6917.884,95.438,540.551,538.947,0.0
52644.0,STARLINK-3985,PAYLOAD,2023-05-16 21:18:20,15.08839621,0.0001194,53.2151,193.101,77.8725,282.2401,0.00010942,1.454e-05,0.0,0 STARLINK-3985,1 52644U 22052AY  23136.88774022  .00001454  00000-0  10942-3 0  9998,2 52644  53.2151 193.1010 0001194  77.8725 282.2401 15.08839621 55963,6917.882,95.438,540.573,538.921,0.0
52644.0,STARLINK-3985,PAYLOAD,2023-05-17 10:01:25,15.08844946,0.0001225,53.2149,190.7221,70.8472,289.2652,0.00014907,2.086e-05,0.0,0 STARLINK-3985,1 52644U 22052AY  23137.41765726  .00002086  00000-0  14907-3 0  9996,2 52644  53.2149 190.7221 0001225  70.8472 289.2652 15.08844946 56427,6917.865,95.437,540.578,538.883,0.0
52644.0,STARLINK-3985,PAYLOAD,2023-05-17 21:09:07,15.08842208,0.0001162,53.215,188.6399,73.1647,286.9473,0.00010975,1.459e-05,0.0,0 STARLINK-3985,1 52644U 22052AY  23137.88133788  .00001459  00000-0  10975-3 0  9998,2 52644  53.2150 188.6399 0001162  73.1647 286.9473 15.08842208 56111,6917.874,95.437,540.542,538.935,0.0
52644.0,STARLINK-3985,PAYLOAD,2023-05-18 08:16:50,15.08831904,0.0001198,53.2158,186.559,73.2219,286.8905,4.788e-05,4.74e-06,0.0,0 STARLINK-3985,1 52644U 22052AY  23138.34502543  .00000474  00000-0  47880-4 0  9991,2 52644  53.2158 186.5590 0001198  73.2219 286.8905 15.08831904 56563,6917.905,95.438,540.599,538.941,0.0
52644.0,STARLINK-3985,PAYLOAD,2023-05-18 14:38:22,15.08837677,0.0001228,53.216,185.3697,72.1099,288.0027,4.4848e-05,4.26e-06,0.0,0 STARLINK-3985,1 52644U 22052AY  23138.60998229  .00000426  00000-0  44848-4 0  9998,2 52644  53.2160 185.3697 0001228  72.1099 288.0027 15.08837677 56224,6917.887,95.438,540.602,538.903,0.0
52644.0,STARLINK-3985,PAYLOAD,2023-05-19 19:15:19,15.08834725,0.0001131,53.2157,180.0135,98.1783,261.9338,1.6854e-05,-2e-07,0.0,0 STARLINK-3985,1 52644U 22052AY  23139.80230484 -.00000020  00000-0  16854-4 0  9990,2 52644  53.2157 180.0135 0001131  98.1783 261.9338 15.08834725 56406,6917.897,95.438,540.544,538.979,0.0
52644.0,STARLINK-3985,PAYLOAD,2023-05-20 01:36:51,15.08836595,0.0001078,53.2159,178.8256,87.9017,272.2098,0.0001011,1.321e-05,0.0,0 STARLINK-3985,1 52644U 22052AY  23140.06726163  .00001321  00000-0  10110-3 0  9996,2 52644  53.2159 178.8256 0001078  87.9017 272.2098 15.08836595 56824,6917.891,95.438,540.502,539.01,0.0
52644.0,STARLINK-3985,PAYLOAD,2023-05-20 19:06:05,15.0884708,0.0001146,53.2157,175.5543,81.2437,278.8685,0.00014634,2.042e-05,0.0,0 STARLINK-3985,1 52644U 22052AY  23140.79589496  .00002042  00000-0  14634-3 0  9998,2 52644  53.2157 175.5543 0001146  81.2437 278.8685 15.08847080 56931,6917.859,95.437,540.517,538.931,0.0
52644.0,STARLINK-3985,PAYLOAD,2023-05-21 07:49:10,15.08847292,0.0001164,53.2157,173.1753,80.5784,279.5339,0.00017727,2.535e-05,0.0,0 STARLINK-3985,1 52644U 22052AY  23141.32581352  .00002535  00000-0  17727-3 0  9994,2 52644  53.2157 173.1753 0001164  80.5784 279.5339 15.08847292 56631,6917.858,95.437,540.528,538.918,0.0
52644.0,STARLINK-3985,PAYLOAD,2023-05-21 18:56:52,15.08843096,0.0001195,53.2142,171.0935,78.0111,282.1015,2.9826e-05,1.87e-06,0.0,0 STARLINK-3985,1 52644U 22052AY  23141.78949494  .00000187  00000-0  29826-4 0  9994,2 52644  53.2142 171.0935 0001195  78.0111 282.1015 15.08843096 57083,6917.871,95.437,540.563,538.909,0.0
52644.0,STARLINK-3985,PAYLOAD,2023-05-22 06:04:34,15.08830978,0.0001295,53.2152,169.012,76.1229,283.9907,-0.00013765,-2.477e-05,0.0,0 STARLINK-3985,1 52644U 22052AY  23142.25318216 -.00002477  00000-0 -13765-3 0  9999,2 52644  53.2152 169.0120 0001295  76.1229 283.9907 15.08830978 57159,6917.908,95.438,540.669,538.877,0.0
52644.0,STARLINK-3985,PAYLOAD,2023-05-22 18:47:40,15.08841623,0.0001311,53.2167,166.6365,76.1129,284.0009,-7.7135e-05,-1.515e-05,0.0,0 STARLINK-3985,1 52644U 22052AY  23142.78310415 -.00001515  00000-0 -77135-4 0  9994,2 52644  53.2167 166.6365 0001311  76.1129 284.0009 15.08841623 56857,6917.875,95.437,540.647,538.833,0.0
